{"id":"599","name":"Jupiter","centerId":"10","centerName":"Sun ","epoch":"2000-Jan-01 12:00:00.0000","ephemerisTable":{"eccentricity":0.04878759429164036,"periapsis":740573662608.8763,"inclination":1.30463058652005,"longitudeOfAscendingNode":100.4911499502671,"argumentOfPeriapsis":275.0690666066695,"timeOfPeriapsis":2451318.4544933103,"meanMotion":9.612791048969867e-7,"meanAnomaly":18.81562710723796,"trueAnomaly":20.72855615535333,"semiMajorAxis":778557615696.1257,"apoapsis":816541568783.3751,"siderealOrbitPeriod":374501014.4983632,"semiMinorAxis":777630490828.5823,"semiLatusRectum":776704470003.3123,"linearEccentricity":37983953087.25008},"physicalDataTable":{"meanRadius":69911000,"mass":1.89818722e+30,"siderealRotRate":0.00017585,"gravParameter":126686531900,"obliquity":3.13,"siderealRotationPeriod":35730.36853670507}}
